
# Worst residual: 9.46 km
# MJD 60389.000000 (2024 Mar 20  0:00)
1976-023H = NORAD 08753 = S510923 = SOLRAD-11 debris
1 08753U 76023H   24080.49919926  .00000000  00000-0  00000-0 0 22382
2 08753 016.8537 326.9010 0312531 094.8229 227.1334 00.18682111    05

# Worst residual: 5.83 km
# MJD 60390.000000 (2024 Mar 21  0:00)
1976-023H = NORAD 08753 = S510923 = SOLRAD-11 debris
1 08753U 76023H   24081.49919926  .00000000  00000-0  00000-0 0 22383
2 08753 016.8531 326.9055 0316544 093.8009 295.4082 00.18668650    01

# Worst residual: 15.60 km
# MJD 60391.000000 (2024 Mar 22  0:00)
1976-023H = NORAD 08753 = S510923 = SOLRAD-11 debris
1 08753U 76023H   24082.49919926  .00000000  00000-0  00000-0 0 22384
2 08753 016.8457 326.9178 0311781 096.7532 359.8082 00.18706227    03

# Worst residual: 15.00 km
# MJD 60392.000000 (2024 Mar 23  0:00)
1976-023H = NORAD 08753 = S510923 = SOLRAD-11 debris
1 08753U 76023H   24083.49919926  .00000000  00000-0  00000-0 0 22385
2 08753 016.8369 326.9241 0311894 100.8809 063.1421 00.18676210    05

# Worst residual: 10.09 km
# MJD 60393.000000 (2024 Mar 24  0:00)
1976-023H = NORAD 08753 = S510923 = SOLRAD-11 debris
1 08753U 76023H   24084.49919926  .00000000  00000-0  00000-0 0 22386
2 08753 016.8140 326.9167 0315700 102.4609 128.6828 00.18653776    05

# Worst residual: 19.30 km
# MJD 60394.000000 (2024 Mar 25  0:00)
1976-023H = NORAD 08753 = S510923 = SOLRAD-11 debris
1 08753U 76023H   24085.49919926  .00000000  00000-0  00000-0 0 22387
2 08753 016.8035 326.9054 0330777 098.9660 199.5883 00.18708983    09

# Worst residual: 14.77 km
# MJD 60395.000000 (2024 Mar 26  0:00)
1976-023H = NORAD 08753 = S510923 = SOLRAD-11 debris
1 08753U 76023H   24086.49919926  .00000000  00000-0  00000-0 0 22388
2 08753 016.7978 326.9110 0338612 095.2008 270.8385 00.18674033    07

# Worst residual: 8.86 km
# MJD 60396.000000 (2024 Mar 27  0:00)
1976-023H = NORAD 08753 = S510923 = SOLRAD-11 debris
1 08753U 76023H   24087.49919926  .00000000  00000-0  00000-0 0 22389
2 08753 016.7924 326.9277 0347321 094.8622 338.3950 00.18655561    09

# Worst residual: 14.26 km
# MJD 60397.000000 (2024 Mar 28  0:00)
1976-023H = NORAD 08753 = S510923 = SOLRAD-11 debris
1 08753U 76023H   24088.49919926  .00000000  00000-0  00000-0 0 22380
2 08753 016.7842 326.9340 0330098 096.6168 044.0001 00.18700715    07

# Worst residual: 10.48 km
# MJD 60398.000000 (2024 Mar 29  0:00)
1976-023H = NORAD 08753 = S510923 = SOLRAD-11 debris
1 08753U 76023H   24089.49919926  .00000000  00000-0  00000-0 0 22381
2 08753 016.7786 326.9437 0313203 097.9801 110.1082 00.18693166    03

# Worst residual: 4.57 km
# MJD 60399.000000 (2024 Mar 30  0:00)
1976-023H = NORAD 08753 = S510923 = SOLRAD-11 debris
1 08753U 76023H   24090.49919926  .00000000  00000-0  00000-0 0 22383
2 08753 016.7745 326.9912 0300282 099.6513 175.5809 00.18651536    05

# Worst residual: 12.13 km
# MJD 60400.000000 (2024 Mar 31  0:00)
1976-023H = NORAD 08753 = S510923 = SOLRAD-11 debris
1 08753U 76023H   24091.49919926  .00000000  00000-0  00000-0 0 22384
2 08753 016.7583 327.0484 0318577 100.8705 241.5333 00.18700761    06

# Worst residual: 9.37 km
# MJD 60401.000000 (2024 Apr  1  0:00)
1976-023H = NORAD 08753 = S510923 = SOLRAD-11 debris
1 08753U 76023H   24092.49919926  .00000000  00000-0  00000-0 0 22385
2 08753 016.7522 327.0627 0333479 100.8002 309.0373 00.18698061    09

# Worst residual: 5.77 km
# MJD 60402.000000 (2024 Apr  2  0:00)
1976-023H = NORAD 08753 = S510923 = SOLRAD-11 debris
1 08753U 76023H   24093.49919926  .00000000  00000-0  00000-0 0 22386
2 08753 016.7442 327.0682 0340679 101.6218 015.5377 00.18683838    08

# Worst residual: 3.84 km
# MJD 60403.000000 (2024 Apr  3  0:00)
1976-023H = NORAD 08753 = S510923 = SOLRAD-11 debris
1 08753U 76023H   24094.49919926  .00000000  00000-0  00000-0 0 22387
2 08753 016.7416 327.0666 0337642 102.3324 082.1087 00.18682304    08

# Worst residual: 10.18 km
# MJD 60404.000000 (2024 Apr  4  0:00)
1976-023H = NORAD 08753 = S510923 = SOLRAD-11 debris
1 08753U 76023H   24095.49919926  .00000000  00000-0  00000-0 0 22388
2 08753 016.7343 327.0765 0338294 100.5196 151.2374 00.18711065    02

# Worst residual: 13.44 km
# MJD 60405.000000 (2024 Apr  5  0:00)
1976-023H = NORAD 08753 = S510923 = SOLRAD-11 debris
1 08753U 76023H   24096.49919926  .00000000  00000-0  00000-0 0 22389
2 08753 016.7248 327.0877 0338890 097.8060 221.4494 00.18709937    08

# Worst residual: 11.57 km
# MJD 60406.000000 (2024 Apr  6  0:00)
1976-023H = NORAD 08753 = S510923 = SOLRAD-11 debris
1 08753U 76023H   24097.49919926  .00000000  00000-0  00000-0 0 22380
2 08753 016.6873 327.1158 0327604 093.5128 292.8682 00.18638315    05

# Worst residual: 15.15 km
# MJD 60407.000000 (2024 Apr  7  0:00)
1976-023H = NORAD 08753 = S510923 = SOLRAD-11 debris
1 08753U 76023H   24098.49919926  .00000000  00000-0  00000-0 0 22381
2 08753 016.6640 327.0751 0304717 096.0857 357.5093 00.18713773    09

# Worst residual: 12.24 km
# MJD 60408.000000 (2024 Apr  8  0:00)
1976-023H = NORAD 08753 = S510923 = SOLRAD-11 debris
1 08753U 76023H   24099.49919926  .00000000  00000-0  00000-0 0 22382
2 08753 016.6558 327.0860 0295348 098.9881 062.1412 00.18719726    03

# Worst residual: 4.80 km
# MJD 60409.000000 (2024 Apr  9  0:00)
1976-023H = NORAD 08753 = S510923 = SOLRAD-11 debris
1 08753U 76023H   24100.49919926  .00000000  00000-0  00000-0 0 22385
2 08753 016.6485 327.0989 0292810 102.7031 125.6887 00.18666641    04

# Worst residual: 7.71 km
# MJD 60410.000000 (2024 Apr 10  0:00)
1976-023H = NORAD 08753 = S510923 = SOLRAD-11 debris
1 08753U 76023H   24101.49919926  .00000000  00000-0  00000-0 0 22386
2 08753 016.6401 327.1089 0301064 102.4820 193.0867 00.18687639    06

# Worst residual: 12.43 km
# MJD 60411.000000 (2024 Apr 11  0:00)
1976-023H = NORAD 08753 = S510923 = SOLRAD-11 debris
1 08753U 76023H   24102.49919926  .00000000  00000-0  00000-0 0 22387
2 08753 016.6325 327.1170 0318827 101.9417 261.0812 00.18714742    05

# Worst residual: 10.96 km
# MJD 60412.000000 (2024 Apr 12  0:00)
1976-023H = NORAD 08753 = S510923 = SOLRAD-11 debris
1 08753U 76023H   24103.49919926  .00000000  00000-0  00000-0 0 22388
2 08753 016.6269 327.1378 0338915 100.3370 330.0846 00.18667263    02

# Worst residual: 12.37 km
# MJD 60413.000000 (2024 Apr 13  0:00)
1976-023H = NORAD 08753 = S510923 = SOLRAD-11 debris
1 08753U 76023H   24104.49919926  .00000000  00000-0  00000-0 0 22389
2 08753 016.6137 327.2150 0339895 099.7683 037.7132 00.18664326    07

# Worst residual: 13.65 km
# MJD 60414.000000 (2024 Apr 14  0:00)
1976-023H = NORAD 08753 = S510923 = SOLRAD-11 debris
1 08753U 76023H   24105.49919926  .00000000  00000-0  00000-0 0 22380
2 08753 016.6005 327.2354 0320128 098.3906 106.4870 00.18704020    08
